[
    {
        "Altitude(m)": 717882.2982801173,
        "Argument of Periapsis(deg)": 0.007973084830638947,
        "Eccentricity": 0.0,
        "Inclination(deg)": 45.0,
        "Latitude(deg)": -45.154077413891564,
        "Longitude(deg)": -65.67457797274781,
        "Mean Anomaly(deg)": -90.1085483467634,
        "RAAN(deg)": 124.99247364097926,
        "Satellite Name": "Constellation 1 566",
        "Satellite Number": 566,
        "Semi-Major Axis(m)": 7083131.272910544,
        "Time(s)": 133
    },
    {
        "Altitude(m)": 717882.3213179002,
        "Argument of Periapsis(deg)": 0.008033032836884352,
        "Eccentricity": 0.0,
        "Inclination(deg)": 45.0,
        "Latitude(deg)": -45.1541516403367,
        "Longitude(deg)": -65.59304930053943,
        "Mean Anomaly(deg)": -90.04784720651351,
        "RAAN(deg)": 124.9924170518137,
        "Satellite Name": "Constellation 1 566",
        "Satellite Number": 566,
        "Semi-Major Axis(m)": 7083131.272910544,
        "Time(s)": 134
    },
    {
        "Altitude(m)": 717882.3179487048,
        "Argument of Periapsis(deg)": 0.008092980843129758,
        "Eccentricity": 0.0,
        "Inclination(deg)": 45.0,
        "Latitude(deg)": -45.15416168068868,
        "Longitude(deg)": -65.51152050221744,
        "Mean Anomaly(deg)": -89.98714606626363,
        "RAAN(deg)": 124.99236046264811,
        "Satellite Name": "Constellation 1 566",
        "Satellite Number": 566,
        "Semi-Major Axis(m)": 7083131.272910544,
        "Time(s)": 135
    },
    {
        "Altitude(m)": 717882.2881725263,
        "Argument of Periapsis(deg)": 0.008152928849375162,
        "Eccentricity": 0.0,
        "Inclination(deg)": 45.0,
        "Latitude(deg)": -45.15410753490264,
        "Longitude(deg)": -65.42999176962849,
        "Mean Anomaly(deg)": -89.92644492601369,
        "RAAN(deg)": 124.99230387348256,
        "Satellite Name": "Constellation 1 566",
        "Satellite Number": 566,
        "Semi-Major Axis(m)": 7083131.272910544,
        "Time(s)": 136
    },
    {
        "Altitude(m)": 717882.2319894555,
        "Argument of Periapsis(deg)": 0.008212876855620568,
        "Eccentricity": 0.0,
        "Inclination(deg)": 45.0,
        "Latitude(deg)": -45.15398920321801,
        "Longitude(deg)": -65.34846329461845,
        "Mean Anomaly(deg)": -89.86574378576384,
        "RAAN(deg)": 124.992247284317,
        "Satellite Name": "Constellation 1 566",
        "Satellite Number": 566,
        "Semi-Major Axis(m)": 7083131.272910544,
        "Time(s)": 137
    },
    {
        "Altitude(m)": 717882.14939968,
        "Argument of Periapsis(deg)": 0.008272824861865974,
        "Eccentricity": 0.0,
        "Inclination(deg)": 45.0,
        "Latitude(deg)": -45.15380668615868,
        "Longitude(deg)": -65.26693526902817,
        "Mean Anomaly(deg)": -89.80504264551391,
        "RAAN(deg)": 124.99219069515141,
        "Satellite Name": "Constellation 1 566",
        "Satellite Number": 566,
        "Semi-Major Axis(m)": 7083131.272910544,
        "Time(s)": 138
    },
    {
        "Altitude(m)": 717882.0404034831,
        "Argument of Periapsis(deg)": 0.00833277286811138,
        "Eccentricity": 0.0,
        "Inclination(deg)": 45.0,
        "Latitude(deg)": -45.15355998453281,
        "Longitude(deg)": -65.18540788469076,
        "Mean Anomaly(deg)": -89.74434150526407,
        "RAAN(deg)": 124.99213410598585,
        "Satellite Name": "Constellation 1 566",
        "Satellite Number": 566,
        "Semi-Major Axis(m)": 7083131.272910544,
        "Time(s)": 139
    },
    {
        "Altitude(m)": 717881.9050012527,
        "Argument of Periapsis(deg)": 0.008392720874356788,
        "Eccentricity": 0.0,
        "Inclination(deg)": 45.0,
        "Latitude(deg)": -45.15324909943295,
        "Longitude(deg)": -65.10388133342747,
        "Mean Anomaly(deg)": -89.68364036501413,
        "RAAN(deg)": 124.99207751682026,
        "Satellite Name": "Constellation 1 566",
        "Satellite Number": 566,
        "Semi-Major Axis(m)": 7083131.272910544,
        "Time(s)": 140
    },
    {
        "Altitude(m)": 717881.7431934655,
        "Argument of Periapsis(deg)": 0.008452668880602192,
        "Eccentricity": 0.0,
        "Inclination(deg)": 45.0,
        "Latitude(deg)": -45.15287403223608,
        "Longitude(deg)": -65.02235597514232,
        "Mean Anomaly(deg)": -89.6229392247642,
        "RAAN(deg)": 124.9920209276547,
        "Satellite Name": "Constellation 1 566",
        "Satellite Number": 566,
        "Semi-Major Axis(m)": 7083131.272910544,
        "Time(s)": 141
    },
    {
        "Altitude(m)": 717881.5549806999,
        "Argument of Periapsis(deg)": 0.008512616886847598,
        "Eccentricity": 0.0,
        "Inclination(deg)": 45.0,
        "Latitude(deg)": -45.15243478460306,
        "Longitude(deg)": -64.9408316654289,
        "Mean Anomaly(deg)": -89.56223808451433,
        "RAAN(deg)": 124.99196433848915,
        "Satellite Name": "Constellation 1 566",
        "Satellite Number": 566,
        "Semi-Major Axis(m)": 7083131.272910544,
        "Time(s)": 142
    },
    {
        "Altitude(m)": 717881.3403636356,
        "Argument of Periapsis(deg)": 0.008572564893093004,
        "Eccentricity": 0.0,
        "Inclination(deg)": 45.0,
        "Latitude(deg)": -45.15193135847943,
        "Longitude(deg)": -64.85930876415097,
        "Mean Anomaly(deg)": -89.50153694426446,
        "RAAN(deg)": 124.99190774932356,
        "Satellite Name": "Constellation 1 566",
        "Satellite Number": 566,
        "Semi-Major Axis(m)": 7083131.272910544,
        "Time(s)": 143
    },
    {
        "Altitude(m)": 717881.0993430439,
        "Argument of Periapsis(deg)": 0.008632512899338408,
        "Eccentricity": 0.0,
        "Inclination(deg)": 45.0,
        "Latitude(deg)": -45.151363756094746,
        "Longitude(deg)": -64.77778746304946,
        "Mean Anomaly(deg)": -89.44083580401451,
        "RAAN(deg)": 124.991851160158,
        "Satellite Name": "Constellation 1 566",
        "Satellite Number": 566,
        "Semi-Major Axis(m)": 7083131.272910544,
        "Time(s)": 144
    },
    {
        "Altitude(m)": 717880.8319197902,
        "Argument of Periapsis(deg)": 0.008692460905583814,
        "Eccentricity": 0.0,
        "Inclination(deg)": 45.0,
        "Latitude(deg)": -45.15073197996281,
        "Longitude(deg)": -64.6962679538372,
        "Mean Anomaly(deg)": -89.38013466376461,
        "RAAN(deg)": 124.99179457099244,
        "Satellite Name": "Constellation 1 566",
        "Satellite Number": 566,
        "Semi-Major Axis(m)": 7083131.272910544,
        "Time(s)": 145
    },
    {
        "Altitude(m)": 717880.5380948521,
        "Argument of Periapsis(deg)": 0.00875240891182922,
        "Eccentricity": 0.0,
        "Inclination(deg)": 45.0,
        "Latitude(deg)": -45.150036032881424,
        "Longitude(deg)": -64.61475042819457,
        "Mean Anomaly(deg)": -89.31943352351479,
        "RAAN(deg)": 124.99173798182686,
        "Satellite Name": "Constellation 1 566",
        "Satellite Number": 566,
        "Semi-Major Axis(m)": 7083131.272910544,
        "Time(s)": 146
    },
    {
        "Altitude(m)": 717880.2178692896,
        "Argument of Periapsis(deg)": 0.008812356918074627,
        "Eccentricity": 0.0,
        "Inclination(deg)": 45.0,
        "Latitude(deg)": -45.14927591793252,
        "Longitude(deg)": -64.53323507776629,
        "Mean Anomaly(deg)": -89.25873238326484,
        "RAAN(deg)": 124.99168139266129,
        "Satellite Name": "Constellation 1 566",
        "Satellite Number": 566,
        "Semi-Major Axis(m)": 7083131.272910544,
        "Time(s)": 147
    },
    {
        "Altitude(m)": 717879.8712442677,
        "Argument of Periapsis(deg)": 0.008872304924320031,
        "Eccentricity": 0.0,
        "Inclination(deg)": 45.0,
        "Latitude(deg)": -45.14845163848209,
        "Longitude(deg)": -64.45172226225591,
        "Mean Anomaly(deg)": -89.19803124301491,
        "RAAN(deg)": 124.99162480349571,
        "Satellite Name": "Constellation 1 566",
        "Satellite Number": 566,
        "Semi-Major Axis(m)": 7083131.272910544,
        "Time(s)": 148
    },
    {
        "Altitude(m)": 717879.4982210498,
        "Argument of Periapsis(deg)": 0.008932252930565437,
        "Eccentricity": 0.0,
        "Inclination(deg)": 45.0,
        "Latitude(deg)": -45.147563198179746,
        "Longitude(deg)": -64.3702118370323,
        "Mean Anomaly(deg)": -89.13733010276499,
        "RAAN(deg)": 124.99156821433014,
        "Satellite Name": "Constellation 1 566",
        "Satellite Number": 566,
        "Semi-Major Axis(m)": 7083131.272910544,
        "Time(s)": 149
    },
    {
        "Altitude(m)": 717879.0988009915,
        "Argument of Periapsis(deg)": 0.008992200936810843,
        "Eccentricity": 0.0,
        "Inclination(deg)": 45.0,
        "Latitude(deg)": -45.14661060095919,
        "Longitude(deg)": -64.28870416171074,
        "Mean Anomaly(deg)": -89.07662896251516,
        "RAAN(deg)": 124.99151162516459,
        "Satellite Name": "Constellation 1 566",
        "Satellite Number": 566,
        "Semi-Major Axis(m)": 7083131.272910544,
        "Time(s)": 150
    },
    {
        "Altitude(m)": 717878.6729855462,
        "Argument of Periapsis(deg)": 0.009052148943056249,
        "Eccentricity": 0.0,
        "Inclination(deg)": 45.0,
        "Latitude(deg)": -45.14559385103784,
        "Longitude(deg)": -64.20719942775963,
        "Mean Anomaly(deg)": -89.01592782226528,
        "RAAN(deg)": 124.99145503599902,
        "Satellite Name": "Constellation 1 566",
        "Satellite Number": 566,
        "Semi-Major Axis(m)": 7083131.272910544,
        "Time(s)": 151
    }
]